H1 CPF  1  HTS 2022  9 13 12  7561 ajisai           NONE
H2  8606101 1500    16908 2022 09 13  0  0  0 2022 09 18  0  0  0   240 1 1  0 0 0
H5  1.0100 
H9 
10 0 59839  77520.00000  0    4043504.683   -3534762.157   -5744559.419
10 0 59839  77760.00000  0    4647986.115   -2056495.118   -5999524.718
10 0 59839  78000.00000  0    5088755.799    -500594.265   -5972231.549
10 0 59839  78240.00000  0    5346720.518    1066431.729   -5663863.723
10 0 59839  78480.00000  0    5408933.338    2578055.259   -5088793.078
10 0 59839  78720.00000  0    5269269.644    3970578.034   -4273944.383
10 0 59839  78960.00000  0    4928900.016    5185859.559   -3257578.254
10 0 59839  79200.00000  0    4396517.520    6173810.504   -2087526.569
10 0 59839  79440.00000  0    3688283.636    6894531.173    -818949.553
10 0 59839  79680.00000  0    2827469.539    7319987.654     488285.451
10 0 59839  79920.00000  0    1843784.300    7435132.638    1772474.603
10 0 59839  80160.00000  0     772408.773    7238409.318    2973041.591
10 0 59839  80400.00000  0    -347225.441    6741624.692    4033435.692
10 0 59839  80640.00000  0   -1472865.392    5969215.351    4903814.713
10 0 59839  80880.00000  0   -2561014.475    4956958.549    5543376.510
10 0 59839  81120.00000  0   -3568587.780    3750220.753    5922228.850
10 0 59839  81360.00000  0   -4454589.312    2401854.710    6022735.405
10 0 59839  81600.00000  0   -5181759.296     969840.700    5840294.589
10 0 59839  81840.00000  0   -5718132.360    -485225.074    5383525.585
10 0 59839  82080.00000  0   -6038450.921   -1902692.771    4673863.941
10 0 59839  82320.00000  0   -6125381.674   -3224380.557    3744584.783
10 0 59839  82560.00000  0   -5970473.635   -4396966.709    2639282.934
10 0 59839  82800.00000  0   -5574797.125   -5374156.499    1409862.518
10 0 59839  83040.00000  0   -4949209.464   -6118529.635     114115.232
10 0 59839  83280.00000  0   -4114208.155   -6602982.121   -1187001.922
10 0 59839  83520.00000  0   -3099356.326   -6811693.544   -2432256.633
10 0 59839  83760.00000  0   -1942291.084   -6740576.435   -3563049.533
10 0 59839  84000.00000  0    -687351.691   -6397197.542   -4526189.244
10 0 59839  84240.00000  0     616112.627   -5800191.825   -5276393.232
10 0 59839  84480.00000  0    1915679.586   -4978221.694   -5778396.937
10 0 59839  84720.00000  0    3157956.401   -3968553.161   -6008584.128
10 0 59839  84960.00000  0    4290770.488   -2815326.940   -5956076.062
99
